[{"OBJECT_NAME":"BEIDOU-2 IGSO-1 (C06)","OBJECT_ID":"2010-036A","EPOCH":"2026-03-05T17:10:32.013120","MEAN_MOTION":1.00252203,"ECCENTRICITY":0.00540174,"INCLINATION":54.2927,"RA_OF_ASC_NODE":163.8986,"ARG_OF_PERICENTER":218.9744,"MEAN_ANOMALY":143.184,"EPHEMERIS_TYPE":0,"CLASSIFICATION_TYPE":"U","NORAD_CAT_ID":36828,"ELEMENT_SET_NO":999,"REV_AT_EPOCH":5706,"BSTAR":0,"MEAN_MOTION_DOT":-1.26e-6,"MEAN_MOTION_DDOT":0},{"OBJECT_NAME":"BEIDOU-2 G4 (C04)","OBJECT_ID":"2010-057A","EPOCH":"2026-03-07T05:25:07.868064","MEAN_MOTION":1.00272401,"ECCENTRICITY":0.0008734,"INCLINATION":3.3937,"RA_OF_ASC_NODE":69.537,"ARG_OF_PERICENTER":212.0365,"MEAN_ANOMALY":124.6573,"EPHEMERIS_TYPE":0,"CLASSIFICATION_TYPE":"U","NORAD_CAT_ID":37210,"ELEMENT_SET_NO":999,"REV_AT_EPOCH":5626,"BSTAR":0,"MEAN_MOTION_DOT":-1.14e-6,"MEAN_MOTION_DDOT":0},{"OBJECT_NAME":"BEIDOU-2 IGSO-2 (C07)","OBJECT_ID":"2010-068A","EPOCH":"2026-03-04T13:12:14.573952","MEAN_MOTION":1.00258965,"ECCENTRICITY":0.00473304,"INCLINATION":47.7317,"RA_OF_ASC_NODE":273.1244,"ARG_OF_PERICENTER":213.1251,"MEAN_ANOMALY":341.1802,"EPHEMERIS_TYPE":0,"CLASSIFICATION_TYPE":"U","NORAD_CAT_ID":37256,"ELEMENT_SET_NO":999,"REV_AT_EPOCH":5574,"BSTAR":0,"MEAN_MOTION_DOT":-1.78e-6,"MEAN_MOTION_DDOT":0},{"OBJECT_NAME":"BEIDOU-2 IGSO-3 (C08)","OBJECT_ID":"2011-013A","EPOCH":"2026-02-27T21:48:44.352288","MEAN_MOTION":1.00294022,"ECCENTRICITY":0.00350296,"INCLINATION":62.2642,"RA_OF_ASC_NODE":41.1818,"ARG_OF_PERICENTER":190.8154,"MEAN_ANOMALY":358.7681,"EPHEMERIS_TYPE":0,"CLASSIFICATION_TYPE":"U","NORAD_CAT_ID":37384,"ELEMENT_SET_NO":999,"REV_AT_EPOCH":5456,"BSTAR":0,"MEAN_MOTION_DOT":-1.54e-6,"MEAN_MOTION_DDOT":0},{"OBJECT_NAME":"BEIDOU-2 IGSO-4 (C09)","OBJECT_ID":"2011-038A","EPOCH":"2026-03-05T17:23:06.211680","MEAN_MOTION":1.00265577,"ECCENTRICITY":0.01545816,"INCLINATION":54.5899,"RA_OF_ASC_NODE":166.6081,"ARG_OF_PERICENTER":230.9953,"MEAN_ANOMALY":121.0281,"EPHEMERIS_TYPE":0,"CLASSIFICATION_TYPE":"U","NORAD_CAT_ID":37763,"ELEMENT_SET_NO":999,"REV_AT_EPOCH":5360,"BSTAR":0,"MEAN_MOTION_DOT":-1.0e-6,"MEAN_MOTION_DDOT":0},{"OBJECT_NAME":"BEIDOU-2 IGSO-5 (C10)","OBJECT_ID":"2011-073A","EPOCH":"2026-03-04T13:08:52.662336","MEAN_MOTION":1.00272598,"ECCENTRICITY":0.01085888,"INCLINATION":47.8676,"RA_OF_ASC_NODE":272.8369,"ARG_OF_PERICENTER":221.1171,"MEAN_ANOMALY":320.721,"EPHEMERIS_TYPE":0,"CLASSIFICATION_TYPE":"U","NORAD_CAT_ID":37948,"ELEMENT_SET_NO":999,"REV_AT_EPOCH":5208,"BSTAR":0,"MEAN_MOTION_DOT":-1.53e-6,"MEAN_MOTION_DDOT":0},{"OBJECT_NAME":"BEIDOU-2 G5 (C05)","OBJECT_ID":"2012-008A","EPOCH":"2026-03-07T03:55:47.918784","MEAN_MOTION":1.00267855,"ECCENTRICITY":0.001404,"INCLINATION":3.3193,"RA_OF_ASC_NODE":70.3003,"ARG_OF_PERICENTER":254.674,"MEAN_ANOMALY":317.6688,"EPHEMERIS_TYPE":0,"CLASSIFICATION_TYPE":"U","NORAD_CAT_ID":38091,"ELEMENT_SET_NO":999,"REV_AT_EPOCH":5134,"BSTAR":0,"MEAN_MOTION_DOT":5.5e-7,"MEAN_MOTION_DDOT":0},{"OBJECT_NAME":"BEIDOU-2 M3 (C11)","OBJECT_ID":"2012-018A","EPOCH":"2026-03-05T00:27:17.004384","MEAN_MOTION":1.86229821,"ECCENTRICITY":0.0021147,"INCLINATION":55.8459,"RA_OF_ASC_NODE":308.3876,"ARG_OF_PERICENTER":279.6506,"MEAN_ANOMALY":80.169,"EPHEMERIS_TYPE":0,"CLASSIFICATION_TYPE":"U","NORAD_CAT_ID":38250,"ELEMENT_SET_NO":999,"REV_AT_EPOCH":9400,"BSTAR":0,"MEAN_MOTION_DOT":-6.7e-7,"MEAN_MOTION_DDOT":0},{"OBJECT_NAME":"BEIDOU-2 M4 (C12)","OBJECT_ID":"2012-018B","EPOCH":"2026-03-06T00:36:00.489888","MEAN_MOTION":1.86229543,"ECCENTRICITY":0.001263,"INCLINATION":55.7456,"RA_OF_ASC_NODE":307.576,"ARG_OF_PERICENTER":286.484,"MEAN_ANOMALY":73.4334,"EPHEMERIS_TYPE":0,"CLASSIFICATION_TYPE":"U","NORAD_CAT_ID":38251,"ELEMENT_SET_NO":999,"REV_AT_EPOCH":9402,"BSTAR":0,"MEAN_MOTION_DOT":-6.9e-7,"MEAN_MOTION_DDOT":0},{"OBJECT_NAME":"BEIDOU-2 M6 (C14)","OBJECT_ID":"2012-050B","EPOCH":"2026-03-06T06:31:53.179392","MEAN_MOTION":1.86231015,"ECCENTRICITY":0.0013996,"INCLINATION":56.4548,"RA_OF_ASC_NODE":66.2956,"ARG_OF_PERICENTER":341.9106,"MEAN_ANOMALY":18.0562,"EPHEMERIS_TYPE":0,"CLASSIFICATION_TYPE":"U","NORAD_CAT_ID":38775,"ELEMENT_SET_NO":999,"REV_AT_EPOCH":9139,"BSTAR":0,"MEAN_MOTION_DOT":-3.5e-7,"MEAN_MOTION_DDOT":0},{"OBJECT_NAME":"BEIDOU-2 G6 (C02)","OBJECT_ID":"2012-059A","EPOCH":"2026-03-07T02:20:12.084576","MEAN_MOTION":1.00269187,"ECCENTRICITY":0.0010745,"INCLINATION":4.163,"RA_OF_ASC_NODE":74.6201,"ARG_OF_PERICENTER":304.6741,"MEAN_ANOMALY":264.515,"EPHEMERIS_TYPE":0,"CLASSIFICATION_TYPE":"U","NORAD_CAT_ID":38953,"ELEMENT_SET_NO":999,"REV_AT_EPOCH":4888,"BSTAR":0,"MEAN_MOTION_DOT":-1.76e-6,"MEAN_MOTION_DDOT":0},{"OBJECT_NAME":"BEIDOU-3S IGSO-1S (C31)","OBJECT_ID":"2015-019A","EPOCH":"2026-03-06T14:25:01.847712","MEAN_MOTION":1.00273571,"ECCENTRICITY":0.00357642,"INCLINATION":49.3862,"RA_OF_ASC_NODE":296.6971,"ARG_OF_PERICENTER":190.6092,"MEAN_ANOMALY":349.746,"EPHEMERIS_TYPE":0,"CLASSIFICATION_TYPE":"U","NORAD_CAT_ID":40549,"ELEMENT_SET_NO":999,"REV_AT_EPOCH":4004,"BSTAR":0,"MEAN_MOTION_DOT":-1.64e-6,"MEAN_MOTION_DDOT":0},{"OBJECT_NAME":"BEIDOU-3S M2S (C58)","OBJECT_ID":"2015-037A","EPOCH":"2026-03-05T03:43:24.330144","MEAN_MOTION":1.86231809,"ECCENTRICITY":0.0008821,"INCLINATION":54.9621,"RA_OF_ASC_NODE":305.6294,"ARG_OF_PERICENTER":278.3568,"MEAN_ANOMALY":81.6004,"EPHEMERIS_TYPE":0,"CLASSIFICATION_TYPE":"U","NORAD_CAT_ID":40748,"ELEMENT_SET_NO":999,"REV_AT_EPOCH":7218,"BSTAR":0,"MEAN_MOTION_DOT":-6.5e-7,"MEAN_MOTION_DDOT":0},{"OBJECT_NAME":"BEIDOU-3S M1S (C57)","OBJECT_ID":"2015-037B","EPOCH":"2026-03-02T16:34:49.336320","MEAN_MOTION":1.86253746,"ECCENTRICITY":0.0004647,"INCLINATION":54.961,"RA_OF_ASC_NODE":305.7025,"ARG_OF_PERICENTER":29.9008,"MEAN_ANOMALY":330.1863,"EPHEMERIS_TYPE":0,"CLASSIFICATION_TYPE":"U","NORAD_CAT_ID":40749,"ELEMENT_SET_NO":999,"REV_AT_EPOCH":7214,"BSTAR":0,"MEAN_MOTION_DOT":-5.3e-7,"MEAN_MOTION_DDOT":0},{"OBJECT_NAME":"BEIDOU-2 IGSO-6 (C13)","OBJECT_ID":"2016-021A","EPOCH":"2026-03-06T21:15:29.777184","MEAN_MOTION":1.00278256,"ECCENTRICITY":0.0059781,"INCLINATION":60.0901,"RA_OF_ASC_NODE":39.0533,"ARG_OF_PERICENTER":233.375,"MEAN_ANOMALY":306.786,"EPHEMERIS_TYPE":0,"CLASSIFICATION_TYPE":"U","NORAD_CAT_ID":41434,"ELEMENT_SET_NO":999,"REV_AT_EPOCH":3645,"BSTAR":0,"MEAN_MOTION_DOT":-1.49e-6,"MEAN_MOTION_DDOT":0},{"OBJECT_NAME":"BEIDOU-2 G7 (C03)","OBJECT_ID":"2016-037A","EPOCH":"2026-03-07T00:45:06.204384","MEAN_MOTION":1.00266382,"ECCENTRICITY":0.0007926,"INCLINATION":1.4681,"RA_OF_ASC_NODE":68.2517,"ARG_OF_PERICENTER":342.9061,"MEAN_ANOMALY":235.3173,"EPHEMERIS_TYPE":0,"CLASSIFICATION_TYPE":"U","NORAD_CAT_ID":41586,"ELEMENT_SET_NO":999,"REV_AT_EPOCH":586,"BSTAR":0,"MEAN_MOTION_DOT":-3.55e-6,"MEAN_MOTION_DDOT":0},{"OBJECT_NAME":"BEIDOU-3 M1 (C19)","OBJECT_ID":"2017-069A","EPOCH":"2026-03-04T23:07:42.560256","MEAN_MOTION":1.8623107,"ECCENTRICITY":0.0012381,"INCLINATION":56.6017,"RA_OF_ASC_NODE":66.5157,"ARG_OF_PERICENTER":309.6653,"MEAN_ANOMALY":50.2473,"EPHEMERIS_TYPE":0,"CLASSIFICATION_TYPE":"U","NORAD_CAT_ID":43001,"ELEMENT_SET_NO":999,"REV_AT_EPOCH":5666,"BSTAR":0,"MEAN_MOTION_DOT":-2.9e-7,"MEAN_MOTION_DDOT":0}]
